#dP2026  6 12  0  0  0.00000000     289 d+D   IGc20 FIT AIUB
## 2422 432000.00000000   300.00000000 61203 0.0000000000000
+  116   G01G02G03G04G05G06G07G08G09G10G11G12G13G14G15G16G17
+        G18G19G20G21G22G23G24G25G26G27G28G29G30G31G32R02R03
+        R04R05R06R07R08R09R11R12R14R15R16R17R18R19R20R21R22
+        R24R26E02E03E04E05E06E07E08E09E10E11E12E13E14E15E16
+        E18E19E21E23E25E26E27E28E29E30E31E32E33E34E36C06C07
+        C08C11C12C13C14C19C20C21C22C23C24C25C26C27C28C29C30
+        C31C32C33C34C35C36C37C38C39C41C42J02J03J04  0  0  0
++         5  5  5  5  5  5  5  5  5  5  5  5  5  5  5  5  5
++         5  5  5  5  5  5  5  5  5  5  5  5  5  5  5  5  5
++        10  5  5  5  6  5  5  5  5  5  5  5  5  5  5  5  5
++         5  5  5  5  5  5  5  5  5  5  5  5  5  5  5  5  5
++         5  5  5  5  5  5  5  5  5  5  5  5  5  5  5  5  5
++         5  5  5  5  5  5  5  5  5  5  5  5  5  5  5  5  5
++         5  6  5  5  5  5  5  5  5  5  5  5  5  5  0  0  0
%c M  cc GPS ccc cccc cccc cccc cccc ccccc ccccc ccccc ccccc
%c cc cc ccc ccc cccc cccc cccc cccc ccccc ccccc ccccc ccccc
%f  1.2500000  1.025000000  0.00000000000  0.000000000000000
%f  0.0000000  0.000000000  0.00000000000  0.000000000000000
%i    0    0    0    0      0      0      0      0         0
%i    0    0    0    0      0      0      0      0         0
/* Center for Orbit Determination in Europe (CODE)                              
/* MGEX orbits and clocks for year-day 2026-1630                                
/* Middle day of a 3-day long-arc multi-GNSS solution                           
/* Systems considered: GPS/GLONASS/Galileo/BeiDou/QZSS                          
/* Product reference - DOI 10.48620/97775                                       
/* PCV:IGS20_2417 OL/AL:FES2014b NONE     YN ORB:CoN CLK:CoN                    
*  2026  6 12  8 50  0.00000000
PG01  15643.833187 -21129.758088   3427.152413    250.086689
PG02  16636.883836 -15130.355068  14024.414181    117.241859
PG03  16926.135287 -11625.771362 -16990.320031    424.048052
PG04   5709.080308 -16735.343761 -19732.243943     59.833337
PG05 -25512.756408   5614.088495   4721.067620   -234.026413
PG06  -9792.295954 -11876.600208 -21562.426216   -592.035376
PG07   4264.926079 -24243.116035  10081.182825   -194.859531
PG08  14570.279727  -6116.288733  21192.553043    423.418099
PG09  -4326.375313 -22578.838444 -13337.863282    738.015768
PG10  16151.319709  11280.939407  18245.638460   -577.979850
PG11 -17023.839666   1445.670219 -20259.782319   -309.506542
PG12 -18647.614363  10766.559705 -15838.398034   -606.977764
PG13 -18752.037688  11968.857027 -14604.065780    358.622881
PG14 -13148.773194 -13359.938482  19034.286267    748.370828
PG15 -12834.485378   8579.048675  21066.260920    419.491360
PG16  26763.370150   1318.319292   -514.463566    279.873936
PG17 -12393.268273 -23308.093749   1158.524531   -153.888757
PG18  -3323.542508  23398.320004  11882.237498   -329.839397
PG19 -17113.618380 -18269.389051  -9723.877059    701.818512
PG20 -17338.889668   -488.386403  20169.559876    192.654935
PG21 -26101.757224  -2289.013831  -4464.097568    409.558547
PG22 -18265.664406 -11629.723717  15491.505442     14.895515
PG23   3111.711869  14409.390682  22185.249717    657.769768
PG24 -14917.041129  19182.745190   9737.117896     57.710291
PG25  -5558.123431  15635.003988 -21080.317845    415.327526
PG26  23914.981823   4827.637342 -11216.216968   -374.218641
PG27  18982.445498   5937.762050  17439.737131      0.475568
PG28   9821.717445  13179.987092 -20850.716672   -502.506738
PG29    973.246406  22367.348379 -14197.690052   -302.867665
PG30  -6245.784846 -18098.469082  18514.488756    256.549495
PG31  15712.338860   3008.520747 -21526.558850   -142.938370
PG32  16663.817706  20391.067775  -3862.887056    105.180084
PR02 -14455.930428    262.276147  21041.354784     12.165232
PR03   1223.801666  13879.780527  21426.382624     14.957000
PR04  14897.283021  18476.981839   9390.336700     -5.403461
PR05  20466.879452  13319.689497  -7394.508430    169.510410
PR06  15459.856230    643.318420 -20281.059222    -18.991151
PR07  -1040.805912 -13735.090485 -21417.828931    122.253422
PR08 -15355.439465 -18254.557823  -8927.331852     -5.190881
PR09  23087.385257 -10580.991866   1821.221491    331.724035
PR11  -4362.712158 -10061.987258  23045.535235      5.519872
PR12 -20371.451471   -321.281889  15374.427966     70.265611
PR14 -12956.742021  13872.400793 -17033.878883     32.898875
PR15   4975.845804   9938.550182 -22933.271702     55.287732
PR16  20438.644499    119.348735 -15217.334480     50.583009
PR17  -5803.918178  24622.655128  -3057.857915    303.962784
PR18   1644.484164  22115.700618  12650.005976    265.872546
PR19   9654.880979   6986.407548  22536.787102     51.426638
PR20  11811.341151 -12347.203208  18940.641538    233.732711
PR21   7557.919000 -23456.970912   6645.752639   -316.116334
PR22  -2500.859196 -21228.535047 -13895.606312    130.398004
PR24 -11277.754692  13230.626204 -18644.360000   -170.996180
PR26 -13115.527644 -18160.580428 -12203.435770    -27.084842
PE02  28635.031082   -881.966016   7469.168623     46.845299
PE03  17681.110670    238.348255 -23740.200539    -22.492337
PE04  -7335.204624  19856.080033  20688.651472   -170.090009
PE05  17577.832565  20043.095732 -12841.900419     41.202582
PE06    -94.309552  26031.725191  14069.251708   -283.595827
PE07  -7152.118953 -28176.006602  -5649.098328    -69.963493
PE08   7326.340986 -19751.604608 -20806.847618   -163.006878
PE09   7087.496113  28158.703270   5668.682767   -316.666795
PE10 -11379.878571  25176.843572  10605.657112   -798.464864
PE11  -2384.315871  22622.027902  18930.519937   5254.428142
PE12 -17586.942972  23753.332167   1785.244483    -50.951719
PE13   2816.239640 -22772.267871 -18696.288365    -56.895549
PE14    355.220037 -26650.913203  15832.400628   3505.241767
PE15  17917.811825 -23525.459754  -1191.313334   -265.542298
PE16   7258.212795  17195.576739 -22960.797902    -38.089192
PE18  -7734.444644  16953.321530 -17291.773673   2883.387443
PE19 -17790.355268  -1391.179672  23626.618544   3023.494711
PE21 -24793.453653 -11642.449401  11228.070525   -749.132116
PE23 -28642.847320   1016.422685  -7421.931402    -38.224470
PE25  24434.714412  11921.502911 -11699.708073     21.882794
PE26 -13776.643179  -8695.486316 -24712.942380    331.032278
PE27  -5975.295784 -17312.987310  23256.688821  -1014.424295
PE28 -13777.807899  11379.897298  23593.202090    -50.563403
PE29 -17691.138285 -19943.259270  12865.994828   -215.053517
PE30  15348.413521 -13053.271320  21680.477539  -1143.081303
PE31 -16075.482263  12676.370516 -21369.281957   -148.215923
PE32  13799.629262 -11340.035929 -23603.716308     12.145839
PE33 -22127.281854  10231.439866 -16787.293659    -18.930047
PE34  22131.990766 -10426.093715  16661.155065   -259.892205
PE36  13493.663429   8799.463221  24828.793147   -578.827984
PC06 -17947.108184  18817.104883  33230.596944    293.583443
PC07 -22661.215183  35540.247108  -3432.362319    -25.877273
PC08  -7201.678800  31770.514121 -26523.635025   -239.995977
PC11  -1595.470564  27730.680073  -2733.915370   -716.489970
PC12   1285.768697  17594.364566  21619.021239    632.498242
PC13 -10292.278476 -21832.210060 -14013.967627   -926.024548
PC14  16837.040727  -7016.434753 -21119.960707   -332.373321
PC19  11521.917306  19263.144138  16564.185950   -937.268961
PC20  -6162.164133  14097.203958  23276.616953   -901.082493
PC21  22450.578969    480.840783 -16539.160001   -850.046162
PC22  24179.051116  13890.257205   -236.058363    455.600093
PC23 -18477.445295  -5952.504188  20055.281018   -456.451371
PC24  17982.210389 -18951.058360   9835.994933   -411.506383
PC25  -2243.502306 -17206.919071  21848.212965    844.251880
PC26  25156.725925 -10510.028452  -6059.534018   -653.648232
PC27 -15949.872223   5264.652527 -22309.337461    644.649539
PC28 -14722.023941 -12233.903456 -20305.658112    527.347605
PC29   4585.340451  27176.154822   4358.611912    616.352983
PC30  -7633.428160  23872.405024 -12303.568415    467.247634
PC31  15824.333886  -6013.684163  22158.205583    786.223876
PC32 -22561.892393   -409.410558  16443.698344   -910.910321
PC33 -11631.717915 -19210.453159 -16594.071145   -913.735463
PC34   8058.285941 -23432.717187  12803.884833    965.683724
PC35  14707.975114  13765.769237  19298.375858   -424.499165
PC36   1319.798210  17455.213638 -21704.781268    273.089933
PC37 -25392.262240   9222.010540   6943.413943   -932.068139
PC38  -5622.177227 -26737.879528  -5663.389390    140.185862
PC39  18121.471417   6263.042928 -20286.268301   -906.391502
PC41 -23851.186055 -14490.088783  -1063.897109   -943.074575
PC42   8590.940407 -12760.303135 -23250.882373   -892.613763
PJ02 -28080.290427  15479.954335 -22628.835530     -0.458380
PJ03 -26603.401238  32636.573193    758.992109     -5.188099
PJ04 -25189.722642  25686.389898  27566.837023      0.949606
EOF
